[{"OBJECT_NAME":"STARLINK-4519","OBJECT_ID":"2022-097BD","EPOCH":"2026-03-09T22:22:28.823520","MEAN_MOTION":15.08834624,"ECCENTRICITY":0.00011805,"INCLINATION":53.217,"RA_OF_ASC_NODE":102.8004,"ARG_OF_PERICENTER":95.2187,"MEAN_ANOMALY":264.894,"EPHEMERIS_TYPE":0,"CLASSIFICATION_TYPE":"U","NORAD_CAT_ID":53439,"ELEMENT_SET_NO":999,"REV_AT_EPOCH":19883,"BSTAR":4.6704865e-5,"MEAN_MOTION_DOT":4.55e-6,"MEAN_MOTION_DDOT":0},{"OBJECT_NAME":"OBJECT M","OBJECT_ID":"2017-042M","EPOCH":"2026-03-09T22:38:39.337440","MEAN_MOTION":15.07991931,"ECCENTRICITY":0.0005117,"INCLINATION":97.4139,"RA_OF_ASC_NODE":234.2602,"ARG_OF_PERICENTER":83.1417,"MEAN_ANOMALY":277.0393,"EPHEMERIS_TYPE":0,"CLASSIFICATION_TYPE":"U","NORAD_CAT_ID":42836,"ELEMENT_SET_NO":999,"REV_AT_EPOCH":47205,"BSTAR":0.00047182615,"MEAN_MOTION_DOT":7.201e-5,"MEAN_MOTION_DDOT":0}]
